IRIDIUM 159             
1 43578U 18061K   25169.50294538  .00000017  00000+0 -98959-6 0  9996
2 43578  86.3988 208.6503 0002057  96.9828 263.1602 14.34217590361254
IRIDIUM 180             
1 43922U 19002A   25169.43267335 -.00000020  00000+0 -14182-4 0  9991
2 43922  86.3988 145.6611 0002263  88.6143 271.5312 14.34217333336858
IRIDIUM 176             
1 43923U 19002B   25169.46378178  .00000824  00000+0  12672-3 0  9994
2 43923  86.6102 145.6412 0003441  86.5786 273.5825 14.72247738345730
IRIDIUM 168             
1 43924U 19002C   25169.42633083 -.00000021  00000+0 -14733-4 0  9992
2 43924  86.3988 145.7306 0002206  87.2796 272.8652 14.34217179336835
IRIDIUM 173             
1 43925U 19002D   25169.48341424  .00000010  00000+0 -34117-5 0  9990
2 43925  86.3985 145.6108 0002356  88.8492 271.2974 14.34217531336829
IRIDIUM 169             
1 43926U 19002E   25169.54512571  .00000152  00000+0  43054-4 0  9996
2 43926  86.4248 177.1657 0003781  82.5129 277.6499 14.38608256337941
IRIDIUM 172             
1 43927U 19002F   25169.47707186  .00000077  00000+0  20342-4 0  9998
2 43927  86.3983 145.6201 0002304  94.4503 265.6956 14.34217060336837
IRIDIUM 175             
1 43928U 19002G   25169.32282124  .00000881  00000+0  13578-3 0  9998
2 43928  86.1500  98.1516 0002837  64.5076 295.6434 14.72244708345707
